{"type":"FeatureCollection","features":[{"type":"Feature","properties":{"name":"Russia"},"geometry":{"type":"MultiPolygon","coordinates":[[[[49.101,46.399],[48.645,45.806],[47.676,45.641],[46.682,44.609],[47.591,43.66],[47.493,42.987],[48.584,41.809],[48.584,41.809],[47.987,41.406],[47.816,41.151],[47.373,41.22],[46.686,41.827],[46.405,41.861],[45.776,42.092],[45.47,42.503],[44.538,42.712],[43.931,42.555],[43.756,42.741],[42.394,43.22],[40.922,43.382],[40.077,43.553],[39.955,43.435],[38.68,44.28],[37.539,44.657],[36.675,45.245],[37.403,45.405],[38.233,46.241],[37.674,46.637],[39.148,47.045],[39.121,47.263],[38.224,47.102],[38.255,47.546],[38.771,47.826],[39.738,47.899],[39.896,48.232],[39.675,48.784],[40.081,49.307],[40.069,49.601],[38.595,49.926],[38.011,49.916],[37.393,50.384],[36.626,50.226],[35.356,50.577],[35.378,50.774],[35.022,51.208],[34.225,51.256],[34.142,51.566],[34.392,51.769],[33.753,52.335],[32.716,52.238],[32.412,52.289],[32.159,52.061],[31.786,52.102],[31.786,52.102],[31.54,52.742],[31.305,53.074],[31.498,53.167],[32.305,53.133],[32.694,53.351],[32.406,53.618],[31.731,53.794],[31.791,53.975],[31.384,54.157],[30.758,54.812],[30.972,55.082],[30.874,55.551],[29.896,55.789],[29.372,55.67],[29.23,55.918],[28.177,56.169],[27.855,56.759],[27.77,57.244],[27.288,57.475],[27.717,57.792],[27.42,58.725],[28.132,59.301],[27.981,59.475],[27.981,59.475],[29.118,60.028],[28.07,60.504],[28.07,60.504],[30.211,61.78],[31.14,62.358],[31.516,62.868],[30.036,63.553],[30.445,64.204],[29.544,64.949],[30.218,65.806],[29.055,66.944],[29.977,67.698],[28.446,68.365],[28.592,69.065],[29.4,69.157],[31.101,69.558],[31.101,69.558],[32.133,69.906],[33.775,69.301],[36.514,69.063],[40.292,67.932],[41.06,67.457],[41.126,66.792],[40.016,66.266],[38.383,66.0],[33.919,66.76],[33.184,66.633],[34.815,65.9],[34.879,65.436],[34.944,64.414],[36.231,64.109],[37.013,63.85],[37.142,64.335],[36.54,64.764],[37.176,65.143],[39.593,64.521],[40.436,64.764],[39.763,65.497],[42.093,66.476],[43.016,66.419],[43.95,66.069],[44.532,66.756],[43.698,67.352],[44.188,67.951],[43.453,68.571],[46.25,68.25],[46.821,67.69],[45.555,67.567],[45.562,67.01],[46.349,66.668],[47.894,66.885],[48.139,67.522],[50.228,67.999],[53.717,68.857],[54.472,68.808],[53.486,68.201],[54.726,68.097],[55.443,68.439],[57.317,68.466],[58.802,68.881],[59.941,68.278],[61.078,68.941],[60.03,69.52],[60.55,69.85],[63.504,69.547],[64.888,69.235],[68.512,68.092],[69.181,68.616],[68.164,69.144],[68.135,69.356],[66.93,69.455],[67.26,69.929],[66.725,70.709],[66.695,71.029],[68.54,71.934],[69.196,72.843],[69.94,73.04],[72.588,72.776],[72.796,72.22],[71.848,71.409],[72.47,71.09],[72.792,70.391],[72.565,69.021],[73.668,68.408],[73.239,67.74],[71.28,66.32],[72.423,66.173],[72.821,66.533],[73.921,66.789],[74.187,67.284],[75.052,67.76],[74.469,68.329],[74.936,68.989],[73.842,69.071],[73.602,69.628],[74.4,70.632],[73.101,71.447],[74.891,72.121],[74.659,72.832],[75.158,72.855],[75.684,72.301],[75.289,71.336],[76.359,71.153],[75.903,71.874],[77.577,72.267],[79.652,72.32],[81.5,71.75],[80.611,72.583],[80.511,73.648],[82.25,73.85],[84.655,73.806],[86.822,73.937],[86.01,74.46],[87.167,75.116],[88.316,75.144],[90.26,75.64],[92.901,75.773],[93.234,76.047],[95.86,76.14],[96.678,75.915],[98.923,76.447],[100.76,76.43],[101.035,76.862],[101.991,77.288],[104.352,77.698],[106.067,77.374],[104.705,77.127],[106.97,76.974],[107.24,76.48],[108.154,76.723],[111.077,76.71],[113.332,76.222],[114.134,75.848],[113.885,75.328],[112.779,75.032],[110.151,74.477],[109.4,74.18],[110.64,74.04],[112.119,73.788],[113.02,73.977],[113.53,73.335],[113.969,73.595],[115.568,73.753],[118.776,73.588],[119.02,73.12],[123.201,72.971],[123.258,73.735],[125.38,73.56],[126.976,73.565],[128.591,73.039],[129.052,72.399],[128.46,71.98],[129.716,71.193],[131.289,70.787],[132.254,71.836],[133.858,71.386],[135.562,71.655],[137.498,71.348],[138.234,71.628],[139.87,71.488],[139.148,72.416],[140.468,72.849],[149.5,72.2],[150.351,71.606],[152.969,70.842],[157.007,71.031],[158.998,70.867],[159.83,70.453],[159.709,69.722],[160.941,69.437],[162.279,69.642],[164.052,69.668],[165.94,69.472],[167.836,69.583],[169.578,68.694],[170.817,69.014],[170.008,69.653],[170.453,70.097],[173.644,69.817],[175.724,69.877],[178.6,69.4],[180,68.964],[180,64.98],[179.993,64.974],[178.707,64.535],[177.411,64.608],[178.313,64.076],[178.908,63.252],[179.37,62.983],[179.486,62.569],[179.228,62.304],[177.364,62.522],[174.569,61.769],[173.68,61.653],[172.15,60.95],[170.698,60.336],[170.331,59.882],[168.9,60.574],[166.295,59.789],[165.84,60.16],[164.877,59.732],[163.539,59.869],[163.217,59.211],[162.017,58.243],[162.053,57.839],[163.192,57.615],[163.058,56.159],[162.13,56.122],[161.701,55.286],[162.117,54.855],[160.369,54.344],[160.022,53.203],[158.531,52.959],[158.231,51.943],[156.79,51.011],[156.42,51.7],[155.992,53.159],[155.434,55.381],[155.914,56.768],[156.758,57.365],[156.81,57.832],[158.364,58.056],[160.151,59.315],[161.872,60.343],[163.67,61.141],[164.474,62.551],[163.258,62.466],[162.658,61.642],[160.121,60.544],[159.302,61.774],[156.721,61.434],[154.218,59.758],[155.044,59.145],[152.812,58.884],[151.266,58.781],[151.338,59.504],[149.784,59.656],[148.545,59.164],[145.487,59.336],[142.198,59.04],[138.958,57.088],[135.126,54.73],[136.702,54.604],[137.193,53.977],[138.165,53.755],[138.805,54.255],[139.902,54.19],[141.345,53.09],[141.379,52.239],[140.597,51.24],[140.513,50.046],[140.062,48.447],[138.555,47.0],[138.22,46.308],[136.862,45.144],[135.515,43.989],[134.869,43.398],[133.537,42.811],[132.906,42.798],[132.278,43.285],[130.936,42.553],[130.78,42.22],[130.78,42.22],[130.78,42.22],[130.78,42.22],[130.64,42.395],[130.64,42.395],[130.634,42.903],[131.145,42.93],[131.289,44.112],[131.025,44.968],[131.883,45.321],[133.097,45.144],[133.77,46.117],[134.112,47.212],[134.501,47.578],[135.026,48.478],[133.374,48.183],[132.507,47.789],[130.987,47.79],[130.582,48.73],[129.398,49.441],[127.657,49.76],[127.287,50.74],[126.939,51.354],[126.564,51.784],[125.946,52.793],[125.068,53.161],[123.571,53.459],[122.246,53.432],[121.003,53.251],[120.177,52.754],[120.726,52.516],[120.738,51.964],[120.182,51.644],[119.279,50.583],[119.288,50.143],[117.879,49.511],[116.679,49.889],[115.486,49.805],[114.962,50.14],[114.362,50.248],[112.898,49.544],[111.581,49.378],[110.662,49.13],[109.402,49.293],[108.475,49.283],[107.868,49.794],[106.889,50.274],[105.887,50.406],[104.622,50.275],[103.677,50.09],[102.256,50.511],[102.065,51.26],[100.889,51.517],[99.982,51.634],[98.861,52.047],[97.826,51.011],[98.232,50.422],[97.26,49.726],[95.814,49.977],[94.816,50.013],[94.148,50.481],[93.104,50.495],[92.235,50.802],[90.714,50.332],[88.806,49.471],[87.751,49.297],[87.36,49.215],[86.829,49.827],[85.541,49.693],[85.116,50.117],[84.416,50.311],[83.935,50.889],[83.383,51.069],[81.946,50.812],[80.568,51.388],[80.036,50.865],[77.801,53.404],[76.525,54.177],[76.891,54.491],[74.385,53.547],[73.426,53.49],[73.509,54.036],[72.224,54.377],[71.18,54.133],[70.865,55.17],[69.068,55.385],[68.169,54.97],[65.667,54.601],[65.179,54.354],[61.437,54.006],[60.978,53.665],[61.7,52.98],[60.74,52.72],[60.927,52.448],[59.968,51.96],[61.588,51.273],[61.337,50.799],[59.933,50.842],[59.642,50.545],[58.363,51.064],[56.778,51.044],[55.717,50.622],[54.533,51.026],[52.329,51.719],[50.767,51.693],[48.702,50.605],[48.578,49.875],[47.549,50.455],[46.752,49.356],[47.044,49.152],[46.466,48.394],[47.315,47.716],[48.057,47.744],[48.695,47.076],[48.593,46.561],[49.101,46.399]]],[[[22.731,54.328],[20.892,54.313],[19.661,54.426],[19.888,54.866],[21.268,55.19],[22.316,55.015],[22.758,54.857],[22.651,54.583],[22.731,54.328]]],[[[33.436,45.972],[33.699,46.22],[34.41,46.005],[34.732,45.966],[34.862,45.768],[35.013,45.738],[35.021,45.651],[35.51,45.41],[36.53,45.47],[36.335,45.113],[35.24,44.94],[33.883,44.361],[33.326,44.565],[33.547,45.035],[32.454,45.327],[32.631,45.519],[33.588,45.852],[33.436,45.972]]]]}},{"type":"Feature","properties":{"name":"Norway"},"geometry":{"type":"MultiPolygon","coordinates":[[[[31.101,69.558],[29.4,69.157],[28.592,69.065],[29.016,69.766],[27.732,70.164],[26.18,69.825],[25.689,69.092],[24.736,68.65],[23.662,68.891],[22.356,68.842],[21.245,69.37],[20.646,69.106],[20.025,69.065],[19.879,68.407],[17.994,68.567],[17.729,68.011],[16.769,68.014],[16.109,67.302],[15.108,66.194],[13.556,64.787],[13.92,64.445],[13.572,64.049],[12.58,64.066],[11.931,63.128],[11.992,61.8],[12.631,61.294],[12.3,60.118],[11.468,59.432],[11.027,58.856],[10.357,59.47],[8.382,58.313],[7.049,58.079],[5.666,58.588],[5.308,59.663],[4.992,61.971],[5.913,62.614],[8.553,63.454],[10.528,64.486],[12.358,65.88],[14.761,67.811],[16.436,68.563],[19.184,69.817],[21.378,70.255],[23.024,70.202],[24.547,71.03],[26.37,70.986],[28.166,71.185],[31.293,70.454],[30.005,70.186],[31.101,69.558]]]]}},{"type":"Feature","properties":{"name":"France"},"geometry":{"type":"MultiPolygon","coordinates":[[[[6.186,49.464],[6.658,49.202],[8.099,49.018],[7.594,48.333],[7.467,47.621],[7.192,47.45],[6.737,47.542],[6.769,47.288],[6.037,46.726],[6.023,46.273],[6.5,46.43],[6.844,45.991],[6.802,45.709],[7.097,45.333],[6.75,45.029],[7.008,44.255],[7.55,44.128],[7.435,43.694],[6.529,43.129],[4.557,43.4],[3.1,43.075],[2.986,42.473],[1.827,42.343],[0.702,42.796],[0.338,42.58],[-1.503,43.034],[-1.901,43.423],[-1.384,44.023],[-1.194,46.015],[-2.226,47.064],[-2.963,47.57],[-4.492,47.955],[-4.592,48.684],[-3.296,48.902],[-1.617,48.644],[-1.933,49.776],[-0.989,49.347],[1.339,50.127],[1.639,50.947],[2.514,51.149],[2.658,50.797],[3.123,50.78],[3.588,50.379],[4.286,49.907],[4.799,49.985],[5.674,49.529],[5.898,49.443],[6.186,49.464]]],[[[8.746,42.628],[9.39,43.01],[9.56,42.152],[9.23,41.38],[8.776,41.584],[8.544,42.257],[8.746,42.628]]]]}},{"type":"Feature","properties":{"name":"Israel"},"geometry":{"type":"Polygon","coordinates":[[[35.72,32.709],[35.546,32.394],[35.184,32.533],[34.975,31.867],[35.226,31.754],[34.971,31.617],[34.927,31.353],[35.398,31.489],[35.421,31.1],[34.923,29.501],[34.823,29.761],[34.265,31.219],[34.265,31.219],[34.265,31.219],[34.556,31.549],[34.488,31.606],[34.753,32.073],[34.955,32.827],[35.098,33.081],[35.126,33.091],[35.461,33.089],[35.553,33.264],[35.821,33.277],[35.836,32.868],[35.701,32.716],[35.72,32.709]]]}},{"type":"Feature","properties":{"name":"Lebanon"},"geometry":{"type":"Polygon","coordinates":[[[35.821,33.277],[35.553,33.264],[35.461,33.089],[35.126,33.091],[35.482,33.905],[35.98,34.61],[35.998,34.645],[36.448,34.594],[36.612,34.202],[36.066,33.825],[35.821,33.277]]]}},{"type":"Feature","properties":{"name":"Tunisia"},"geometry":{"type":"Polygon","coordinates":[[[9.482,30.308],[9.056,32.103],[8.439,32.506],[8.43,32.748],[7.613,33.344],[7.524,34.097],[8.141,34.655],[8.376,35.48],[8.218,36.433],[8.421,36.946],[9.51,37.35],[10.21,37.23],[10.181,36.724],[11.029,37.092],[11.1,36.9],[10.6,36.41],[10.593,35.947],[10.94,35.699],[10.808,34.834],[10.15,34.331],[10.34,33.786],[10.857,33.769],[11.109,33.293],[11.489,33.137],[11.432,32.369],[10.945,32.082],[10.637,31.761],[9.95,31.376],[10.057,30.962],[9.97,30.539],[9.482,30.308]]]}},{"type":"Feature","properties":{"name":"Algeria"},"geometry":{"type":"Polygon","coordinates":[[[-8.684,27.396],[-8.665,27.589],[-8.666,27.656],[-8.674,28.841],[-7.059,29.579],[-6.061,29.732],[-5.242,30.0],[-4.86,30.501],[-3.69,30.897],[-3.647,31.637],[-3.069,31.724],[-2.617,32.094],[-1.308,32.263],[-1.125,32.652],[-1.388,32.864],[-1.733,33.92],[-1.793,34.528],[-2.17,35.168],[-1.209,35.715],[-0.127,35.889],[0.504,36.301],[1.467,36.606],[3.162,36.784],[4.816,36.865],[5.32,36.717],[6.262,37.111],[7.33,37.118],[7.737,36.886],[8.421,36.946],[8.218,36.433],[8.376,35.48],[8.141,34.655],[7.524,34.097],[7.613,33.344],[8.43,32.748],[8.439,32.506],[9.056,32.103],[9.482,30.308],[9.806,29.425],[9.86,28.96],[9.684,28.144],[9.756,27.688],[9.629,27.141],[9.716,26.512],[9.319,26.094],[9.911,25.365],[9.948,24.937],[10.304,24.379],[10.771,24.563],[11.561,24.098],[12.0,23.472],[8.573,21.566],[5.678,19.601],[4.267,19.155],[3.158,19.057],[3.147,19.694],[2.684,19.856],[2.061,20.142],[1.823,20.611],[-1.55,22.793],[-4.923,24.975],[-8.684,27.396]]]}},{"type":"Feature","properties":{"name":"Jordan"},"geometry":{"type":"Polygon","coordinates":[[[35.546,32.394],[35.72,32.709],[36.834,32.313],[38.792,33.379],[39.195,32.161],[39.005,32.01],[37.002,31.508],[37.999,30.509],[37.668,30.339],[37.504,30.004],[36.741,29.865],[36.501,29.505],[36.069,29.197],[34.956,29.357],[34.923,29.501],[35.421,31.1],[35.398,31.489],[35.545,31.783],[35.546,32.394]]]}},{"type":"Feature","properties":{"name":"Iraq"},"geometry":{"type":"Polygon","coordinates":[[[39.195,32.161],[38.792,33.379],[41.006,34.419],[41.384,35.628],[41.29,36.359],[41.837,36.606],[42.35,37.23],[42.779,37.385],[43.942,37.256],[44.293,37.002],[44.773,37.17],[45.421,35.978],[46.076,35.677],[46.152,35.093],[45.648,34.748],[45.417,33.968],[46.109,33.017],[47.335,32.469],[47.849,31.709],[47.685,30.985],[48.005,30.985],[48.015,30.452],[48.568,29.927],[47.975,29.976],[47.303,30.059],[46.569,29.099],[44.709,29.179],[41.89,31.19],[40.4,31.89],[39.195,32.161]]]}},{"type":"Feature","properties":{"name":"Iran"},"geometry":{"type":"Polygon","coordinates":[[[48.568,29.927],[48.015,30.452],[48.005,30.985],[47.685,30.985],[47.849,31.709],[47.335,32.469],[46.109,33.017],[45.417,33.968],[45.648,34.748],[46.152,35.093],[46.076,35.677],[45.421,35.978],[44.773,37.17],[44.773,37.17],[44.226,37.972],[44.421,38.281],[44.109,39.428],[44.794,39.713],[44.953,39.336],[45.458,38.874],[46.144,38.741],[46.506,38.771],[47.685,39.508],[48.06,39.582],[48.356,39.289],[48.011,38.794],[48.634,38.27],[48.883,38.32],[49.2,37.583],[50.148,37.375],[50.842,36.873],[52.264,36.7],[53.826,36.965],[53.922,37.199],[54.8,37.392],[55.512,37.964],[56.18,37.935],[56.619,38.121],[57.33,38.029],[58.436,37.522],[59.235,37.413],[60.378,36.527],[61.123,36.492],[61.211,35.65],[60.803,34.404],[60.528,33.676],[60.964,33.529],[60.536,32.981],[60.864,32.183],[60.942,31.548],[61.699,31.38],[61.781,30.736],[60.874,29.829],[61.369,29.303],[61.772,28.699],[62.728,28.26],[62.755,27.379],[63.234,27.217],[63.317,26.757],[61.874,26.24],[61.497,25.078],[59.616,25.38],[58.526,25.61],[57.397,25.74],[56.971,26.966],[56.492,27.143],[55.724,26.965],[54.715,26.481],[53.493,26.812],[52.484,27.581],[51.521,27.866],[50.853,28.815],[50.115,30.148],[49.577,29.986],[48.941,30.317],[48.568,29.927]]]}},{"type":"Feature","properties":{"name":"Syria"},"geometry":{"type":"Polygon","coordinates":[[[35.72,32.709],[35.701,32.716],[35.836,32.868],[35.821,33.277],[36.066,33.825],[36.612,34.202],[36.448,34.594],[35.998,34.645],[35.905,35.41],[36.15,35.822],[36.418,36.041],[36.685,36.26],[36.739,36.818],[37.067,36.623],[38.168,36.901],[38.7,36.713],[39.523,36.716],[40.673,37.091],[41.212,37.074],[42.35,37.23],[41.837,36.606],[41.29,36.359],[41.384,35.628],[41.006,34.419],[38.792,33.379],[36.834,32.313],[35.72,32.709]]]}},{"type":"Feature","properties":{"name":"Armenia"},"geometry":{"type":"Polygon","coordinates":[[[46.506,38.771],[46.144,38.741],[45.735,39.32],[45.74,39.474],[45.298,39.472],[45.002,39.74],[44.794,39.713],[44.4,40.005],[43.656,40.254],[43.753,40.74],[43.583,41.092],[44.972,41.248],[45.179,40.985],[45.56,40.812],[45.359,40.562],[45.892,40.218],[45.61,39.9],[46.035,39.628],[46.483,39.464],[46.506,38.771]]]}},{"type":"Feature","properties":{"name":"Sweden"},"geometry":{"type":"Polygon","coordinates":[[[11.027,58.856],[11.468,59.432],[12.3,60.118],[12.631,61.294],[11.992,61.8],[11.931,63.128],[12.58,64.066],[13.572,64.049],[13.92,64.445],[13.556,64.787],[15.108,66.194],[16.109,67.302],[16.769,68.014],[17.729,68.011],[17.994,68.567],[19.879,68.407],[20.025,69.065],[20.646,69.106],[21.979,68.617],[23.539,67.936],[23.566,66.396],[23.903,66.007],[22.183,65.724],[21.214,65.026],[21.37,64.414],[19.779,63.61],[17.848,62.749],[17.12,61.341],[17.831,60.637],[18.788,60.082],[17.869,58.954],[16.829,58.72],[16.448,57.041],[15.88,56.104],[14.667,56.201],[14.101,55.408],[12.943,55.362],[12.625,56.307],[11.788,57.442],[11.027,58.856]]]}},{"type":"Feature","properties":{"name":"Belarus"},"geometry":{"type":"Polygon","coordinates":[[[28.177,56.169],[29.23,55.918],[29.372,55.67],[29.896,55.789],[30.874,55.551],[30.972,55.082],[30.758,54.812],[31.384,54.157],[31.791,53.975],[31.731,53.794],[32.406,53.618],[32.694,53.351],[32.305,53.133],[31.498,53.167],[31.305,53.074],[31.54,52.742],[31.786,52.102],[31.786,52.102],[30.928,52.042],[30.619,51.823],[30.555,51.32],[30.157,51.416],[29.255,51.368],[28.993,51.602],[28.618,51.428],[28.242,51.572],[27.454,51.592],[26.338,51.832],[25.328,51.911],[24.553,51.888],[24.005,51.617],[23.527,51.578],[23.508,52.024],[23.199,52.487],[23.799,52.691],[23.805,53.09],[23.528,53.47],[23.484,53.912],[24.451,53.906],[25.536,54.282],[25.768,54.847],[26.588,55.167],[26.494,55.615],[27.102,55.783],[28.177,56.169]]]}},{"type":"Feature","properties":{"name":"Ukraine"},"geometry":{"type":"Polygon","coordinates":[[[31.786,52.102],[32.159,52.061],[32.412,52.289],[32.716,52.238],[33.753,52.335],[34.392,51.769],[34.142,51.566],[34.225,51.256],[35.022,51.208],[35.378,50.774],[35.356,50.577],[36.626,50.226],[37.393,50.384],[38.011,49.916],[38.595,49.926],[40.069,49.601],[40.081,49.307],[39.675,48.784],[39.896,48.232],[39.738,47.899],[38.771,47.826],[38.255,47.546],[38.224,47.102],[37.425,47.022],[36.76,46.699],[35.824,46.646],[34.962,46.273],[35.013,45.738],[34.862,45.768],[34.732,45.966],[34.41,46.005],[33.699,46.22],[33.436,45.972],[33.299,46.081],[31.744,46.333],[31.675,46.706],[30.749,46.583],[30.378,46.032],[29.603,45.293],[29.15,45.465],[28.68,45.304],[28.234,45.488],[28.485,45.597],[28.66,45.94],[28.934,46.259],[28.863,46.438],[29.072,46.518],[29.171,46.379],[29.76,46.35],[30.025,46.424],[29.838,46.525],[29.909,46.674],[29.56,46.929],[29.415,47.347],[29.051,47.51],[29.123,47.849],[28.671,48.118],[28.26,48.156],[27.523,48.467],[26.858,48.368],[26.619,48.221],[26.197,48.221],[25.946,47.987],[25.208,47.891],[24.866,47.738],[24.402,47.982],[23.761,47.986],[23.142,48.096],[22.711,47.882],[22.641,48.15],[22.086,48.422],[22.281,48.825],[22.558,49.086],[22.776,49.027],[22.518,49.477],[23.427,50.309],[23.923,50.425],[24.03,50.705],[23.527,51.578],[24.005,51.617],[24.553,51.888],[25.328,51.911],[26.338,51.832],[27.454,51.592],[28.242,51.572],[28.618,51.428],[28.993,51.602],[29.255,51.368],[30.157,51.416],[30.555,51.32],[30.619,51.823],[30.928,52.042],[31.786,52.102]]]}},{"type":"Feature","properties":{"name":"Poland"},"geometry":{"type":"Polygon","coordinates":[[[23.484,53.912],[23.528,53.47],[23.805,53.09],[23.799,52.691],[23.199,52.487],[23.508,52.024],[23.527,51.578],[24.03,50.705],[23.923,50.425],[23.427,50.309],[22.518,49.477],[22.776,49.027],[22.558,49.086],[21.608,49.47],[20.888,49.329],[20.416,49.431],[19.825,49.217],[19.321,49.572],[18.91,49.436],[18.853,49.496],[18.393,49.989],[17.649,50.049],[17.555,50.362],[16.869,50.474],[16.719,50.216],[16.176,50.423],[16.239,50.698],[15.491,50.785],[15.017,51.107],[14.607,51.745],[14.685,52.09],[14.438,52.625],[14.075,52.981],[14.353,53.248],[14.12,53.757],[14.803,54.051],[16.363,54.513],[17.623,54.852],[18.621,54.683],[18.696,54.439],[19.661,54.426],[20.892,54.313],[22.731,54.328],[23.244,54.221],[23.484,53.912]]]}},{"type":"Feature","properties":{"name":"Austria"},"geometry":{"type":"Polygon","coordinates":[[[16.98,48.123],[16.904,47.715],[16.341,47.713],[16.534,47.496],[16.202,46.852],[16.012,46.684],[15.137,46.659],[14.632,46.432],[13.806,46.509],[12.376,46.768],[12.153,47.115],[11.165,46.942],[11.049,46.751],[10.443,46.894],[9.932,46.921],[9.48,47.103],[9.633,47.348],[9.594,47.525],[9.896,47.58],[10.402,47.302],[10.545,47.566],[11.426,47.524],[12.141,47.703],[12.621,47.672],[12.933,47.468],[13.026,47.638],[12.884,48.289],[13.243,48.416],[13.596,48.877],[14.339,48.555],[14.901,48.964],[15.253,49.039],[16.03,48.734],[16.499,48.786],[16.96,48.597],[16.88,48.47],[16.98,48.123]]]}},{"type":"Feature","properties":{"name":"Hungary"},"geometry":{"type":"Polygon","coordinates":[[[22.086,48.422],[22.641,48.15],[22.711,47.882],[22.1,47.672],[21.627,46.994],[21.022,46.316],[20.22,46.127],[19.596,46.172],[18.83,45.909],[18.83,45.909],[18.456,45.759],[17.63,45.952],[16.883,46.381],[16.565,46.504],[16.371,46.841],[16.202,46.852],[16.534,47.496],[16.341,47.713],[16.904,47.715],[16.98,48.123],[17.488,47.867],[17.857,47.758],[18.697,47.881],[18.777,48.082],[19.174,48.111],[19.661,48.267],[19.769,48.203],[20.239,48.328],[20.474,48.563],[20.801,48.624],[21.872,48.32],[22.086,48.422]]]}},{"type":"Feature","properties":{"name":"Moldova"},"geometry":{"type":"Polygon","coordinates":[[[26.619,48.221],[26.858,48.368],[27.523,48.467],[28.26,48.156],[28.671,48.118],[29.123,47.849],[29.051,47.51],[29.415,47.347],[29.56,46.929],[29.909,46.674],[29.838,46.525],[30.025,46.424],[29.76,46.35],[29.171,46.379],[29.072,46.518],[28.863,46.438],[28.934,46.259],[28.66,45.94],[28.485,45.597],[28.234,45.488],[28.054,45.945],[28.16,46.372],[28.128,46.81],[27.551,47.405],[27.234,47.827],[26.924,48.123],[26.619,48.221]]]}},{"type":"Feature","properties":{"name":"Romania"},"geometry":{"type":"Polygon","coordinates":[[[28.234,45.488],[28.68,45.304],[29.15,45.465],[29.603,45.293],[29.627,45.035],[29.142,44.82],[28.838,44.914],[28.558,43.707],[27.97,43.812],[27.242,44.176],[26.065,43.943],[25.569,43.688],[24.101,43.741],[23.332,43.897],[22.945,43.824],[22.657,44.235],[22.474,44.409],[22.706,44.578],[22.459,44.703],[22.145,44.478],[21.562,44.769],[21.484,45.181],[20.874,45.416],[20.762,45.735],[20.22,46.127],[21.022,46.316],[21.627,46.994],[22.1,47.672],[22.711,47.882],[23.142,48.096],[23.761,47.986],[24.402,47.982],[24.866,47.738],[25.208,47.891],[25.946,47.987],[26.197,48.221],[26.619,48.221],[26.924,48.123],[27.234,47.827],[27.551,47.405],[28.128,46.81],[28.16,46.372],[28.054,45.945],[28.234,45.488]]]}},{"type":"Feature","properties":{"name":"Lithuania"},"geometry":{"type":"Polygon","coordinates":[[[26.494,55.615],[26.588,55.167],[25.768,54.847],[25.536,54.282],[24.451,53.906],[23.484,53.912],[23.244,54.221],[22.731,54.328],[22.651,54.583],[22.758,54.857],[22.316,55.015],[21.268,55.19],[21.056,56.031],[22.201,56.338],[23.878,56.274],[24.861,56.373],[25.001,56.165],[25.533,56.1],[26.494,55.615]]]}},{"type":"Feature","properties":{"name":"Latvia"},"geometry":{"type":"Polygon","coordinates":[[[27.288,57.475],[27.77,57.244],[27.855,56.759],[28.177,56.169],[27.102,55.783],[26.494,55.615],[25.533,56.1],[25.001,56.165],[24.861,56.373],[23.878,56.274],[22.201,56.338],[21.056,56.031],[21.09,56.784],[21.582,57.412],[22.524,57.753],[23.318,57.006],[24.121,57.026],[24.313,57.793],[25.165,57.97],[25.603,57.848],[26.464,57.476],[27.288,57.475]]]}},{"type":"Feature","properties":{"name":"Estonia"},"geometry":{"type":"Polygon","coordinates":[[[27.981,59.475],[27.981,59.475],[28.132,59.301],[27.42,58.725],[27.717,57.792],[27.288,57.475],[26.464,57.476],[25.603,57.848],[25.165,57.97],[24.313,57.793],[24.429,58.383],[24.061,58.257],[23.427,58.613],[23.34,59.187],[24.604,59.466],[25.864,59.611],[26.949,59.446],[27.981,59.475],[27.981,59.475]]]}},{"type":"Feature","properties":{"name":"Germany"},"geometry":{"type":"Polygon","coordinates":[[[14.12,53.757],[14.353,53.248],[14.075,52.981],[14.438,52.625],[14.685,52.09],[14.607,51.745],[15.017,51.107],[14.571,51.002],[14.307,51.117],[14.056,50.927],[13.338,50.733],[12.967,50.484],[12.24,50.266],[12.415,49.969],[12.521,49.547],[13.031,49.307],[13.596,48.877],[13.243,48.416],[12.884,48.289],[13.026,47.638],[12.933,47.468],[12.621,47.672],[12.141,47.703],[11.426,47.524],[10.545,47.566],[10.402,47.302],[9.896,47.58],[9.594,47.525],[8.523,47.831],[8.317,47.614],[7.467,47.621],[7.594,48.333],[8.099,49.018],[6.658,49.202],[6.186,49.464],[6.243,49.902],[6.043,50.128],[6.157,50.804],[5.989,51.852],[6.589,51.852],[6.843,52.228],[7.092,53.144],[6.905,53.482],[7.1,53.694],[7.936,53.748],[8.122,53.528],[8.801,54.021],[8.572,54.396],[8.526,54.963],[9.282,54.831],[9.922,54.983],[9.94,54.597],[10.95,54.364],[10.939,54.009],[11.956,54.196],[12.518,54.47],[13.647,54.076],[14.12,53.757]]]}},{"type":"Feature","properties":{"name":"Bulgaria"},"geometry":{"type":"Polygon","coordinates":[[[22.657,44.235],[22.945,43.824],[23.332,43.897],[24.101,43.741],[25.569,43.688],[26.065,43.943],[27.242,44.176],[27.97,43.812],[28.558,43.707],[28.039,43.293],[27.674,42.578],[27.997,42.007],[27.136,42.141],[26.117,41.827],[26.106,41.329],[25.197,41.234],[24.493,41.584],[23.692,41.309],[22.952,41.338],[22.881,41.999],[22.381,42.32],[22.545,42.461],[22.437,42.58],[22.605,42.899],[22.986,43.211],[22.5,43.643],[22.41,44.008],[22.657,44.235]]]}},{"type":"Feature","properties":{"name":"Greece"},"geometry":{"type":"MultiPolygon","coordinates":[[[[26.29,35.3],[26.165,35.005],[24.725,34.92],[24.735,35.085],[23.515,35.28],[23.7,35.705],[24.247,35.368],[25.025,35.425],[25.769,35.354],[25.745,35.18],[26.29,35.3]]],[[[22.952,41.338],[23.692,41.309],[24.493,41.584],[25.197,41.234],[26.106,41.329],[26.117,41.827],[26.604,41.562],[26.295,40.936],[26.057,40.824],[25.448,40.853],[24.926,40.947],[23.715,40.687],[24.408,40.125],[23.9,39.962],[23.343,39.961],[22.814,40.476],[22.626,40.257],[22.85,39.659],[23.35,39.19],[22.973,38.971],[23.53,38.51],[24.025,38.22],[24.04,37.655],[23.115,37.92],[23.41,37.41],[22.775,37.305],[23.154,36.423],[22.49,36.41],[21.67,36.845],[21.295,37.645],[21.12,38.31],[20.73,38.77],[20.218,39.34],[20.15,39.625],[20.615,40.11],[20.675,40.435],[21.0,40.58],[21.02,40.843],[21.674,40.931],[22.055,41.15],[22.597,41.13],[22.762,41.305],[22.952,41.338]]]]}},{"type":"Feature","properties":{"name":"Turkey"},"geometry":{"type":"MultiPolygon","coordinates":[[[[44.773,37.17],[44.293,37.002],[43.942,37.256],[42.779,37.385],[42.35,37.23],[41.212,37.074],[40.673,37.091],[39.523,36.716],[38.7,36.713],[38.168,36.901],[37.067,36.623],[36.739,36.818],[36.685,36.26],[36.418,36.041],[36.15,35.822],[35.782,36.275],[36.161,36.651],[35.551,36.565],[34.715,36.796],[34.027,36.22],[32.509,36.108],[31.7,36.644],[30.622,36.678],[30.391,36.263],[29.7,36.144],[28.733,36.677],[27.641,36.659],[27.049,37.653],[26.318,38.208],[26.805,38.986],[26.171,39.464],[27.28,40.42],[28.82,40.46],[29.24,41.22],[31.146,41.088],[32.348,41.736],[33.513,42.019],[35.168,42.04],[36.913,41.335],[38.348,40.949],[39.513,41.103],[40.373,41.014],[41.554,41.536],[42.62,41.583],[43.583,41.092],[43.753,40.74],[43.656,40.254],[44.4,40.005],[44.794,39.713],[44.109,39.428],[44.421,38.281],[44.226,37.972],[44.773,37.17],[44.773,37.17]]],[[[26.117,41.827],[27.136,42.141],[27.997,42.007],[28.116,41.623],[28.988,41.3],[28.806,41.055],[27.619,41.0],[27.192,40.691],[26.358,40.152],[26.043,40.618],[26.057,40.824],[26.295,40.936],[26.604,41.562],[26.117,41.827]]]]}},{"type":"Feature","properties":{"name":"Albania"},"geometry":{"type":"Polygon","coordinates":[[[21.02,40.843],[21.0,40.58],[20.675,40.435],[20.615,40.11],[20.15,39.625],[19.98,39.695],[19.96,39.915],[19.406,40.251],[19.319,40.727],[19.404,41.41],[19.54,41.72],[19.372,41.878],[19.372,41.878],[19.304,42.196],[19.738,42.688],[19.802,42.5],[20.071,42.589],[20.284,42.32],[20.523,42.218],[20.59,41.855],[20.59,41.855],[20.463,41.515],[20.605,41.086],[21.02,40.843]]]}},{"type":"Feature","properties":{"name":"Croatia"},"geometry":{"type":"Polygon","coordinates":[[[16.565,46.504],[16.883,46.381],[17.63,45.952],[18.456,45.759],[18.83,45.909],[19.073,45.522],[19.39,45.237],[19.005,44.86],[18.553,45.082],[17.862,45.068],[17.002,45.234],[16.535,45.212],[16.318,45.004],[15.959,45.234],[15.75,44.819],[16.24,44.351],[16.456,44.041],[16.916,43.668],[17.297,43.446],[17.675,43.029],[18.56,42.65],[18.45,42.48],[18.45,42.48],[17.51,42.85],[16.93,43.21],[16.015,43.507],[15.174,44.243],[15.376,44.318],[14.92,44.738],[14.902,45.076],[14.259,45.234],[13.952,44.802],[13.657,45.137],[13.679,45.484],[13.715,45.5],[14.412,45.466],[14.595,45.635],[14.935,45.472],[15.328,45.452],[15.324,45.732],[15.672,45.834],[15.769,46.238],[16.565,46.504]]]}},{"type":"Feature","properties":{"name":"Switzerland"},"geometry":{"type":"Polygon","coordinates":[[[9.594,47.525],[9.633,47.348],[9.48,47.103],[9.932,46.921],[10.443,46.894],[10.363,46.484],[9.923,46.315],[9.183,46.44],[8.966,46.037],[8.49,46.005],[8.317,46.164],[7.756,45.824],[7.274,45.777],[6.844,45.991],[6.5,46.43],[6.023,46.273],[6.037,46.726],[6.769,47.288],[6.737,47.542],[7.192,47.45],[7.467,47.621],[8.317,47.614],[8.523,47.831],[9.594,47.525]]]}},{"type":"Feature","properties":{"name":"Luxembourg"},"geometry":{"type":"Polygon","coordinates":[[[6.043,50.128],[6.243,49.902],[6.186,49.464],[5.898,49.443],[5.674,49.529],[5.782,50.09],[6.043,50.128]]]}},{"type":"Feature","properties":{"name":"Belgium"},"geometry":{"type":"Polygon","coordinates":[[[6.157,50.804],[6.043,50.128],[5.782,50.09],[5.674,49.529],[4.799,49.985],[4.286,49.907],[3.588,50.379],[3.123,50.78],[2.658,50.797],[2.514,51.149],[3.315,51.346],[3.315,51.346],[3.315,51.346],[4.047,51.267],[4.974,51.475],[5.607,51.037],[6.157,50.804]]]}},{"type":"Feature","properties":{"name":"Netherlands"},"geometry":{"type":"Polygon","coordinates":[[[6.905,53.482],[7.092,53.144],[6.843,52.228],[6.589,51.852],[5.989,51.852],[6.157,50.804],[5.607,51.037],[4.974,51.475],[4.047,51.267],[3.315,51.346],[3.315,51.346],[3.83,51.621],[4.706,53.092],[6.074,53.51],[6.905,53.482]]]}},{"type":"Feature","properties":{"name":"Portugal"},"geometry":{"type":"Polygon","coordinates":[[[-9.035,41.881],[-8.672,42.135],[-8.264,42.28],[-8.013,41.791],[-7.423,41.792],[-7.251,41.918],[-6.669,41.883],[-6.389,41.382],[-6.851,41.111],[-6.864,40.331],[-7.026,40.185],[-7.067,39.712],[-7.499,39.63],[-7.098,39.03],[-7.374,38.373],[-7.029,38.076],[-7.167,37.804],[-7.537,37.429],[-7.454,37.098],[-7.856,36.838],[-8.383,36.979],[-8.899,36.869],[-8.746,37.651],[-8.84,38.266],[-9.287,38.358],[-9.527,38.737],[-9.447,39.392],[-9.048,39.755],[-8.977,40.159],[-8.769,40.761],[-8.791,41.184],[-8.991,41.543],[-9.035,41.881]]]}},{"type":"Feature","properties":{"name":"Spain"},"geometry":{"type":"Polygon","coordinates":[[[-7.454,37.098],[-7.537,37.429],[-7.167,37.804],[-7.029,38.076],[-7.374,38.373],[-7.098,39.03],[-7.499,39.63],[-7.067,39.712],[-7.026,40.185],[-6.864,40.331],[-6.851,41.111],[-6.389,41.382],[-6.669,41.883],[-7.251,41.918],[-7.423,41.792],[-8.013,41.791],[-8.264,42.28],[-8.672,42.135],[-9.035,41.881],[-8.984,42.593],[-9.393,43.027],[-7.978,43.748],[-6.754,43.568],[-5.412,43.574],[-4.348,43.403],[-3.518,43.456],[-1.901,43.423],[-1.503,43.034],[0.338,42.58],[0.702,42.796],[1.827,42.343],[2.986,42.473],[3.039,41.892],[2.092,41.226],[0.811,41.015],[0.721,40.678],[0.107,40.124],[-0.279,39.31],[0.111,38.739],[-0.467,38.292],[-0.683,37.642],[-1.438,37.443],[-2.146,36.674],[-3.416,36.659],[-4.369,36.678],[-4.995,36.325],[-5.377,35.947],[-5.866,36.03],[-6.237,36.368],[-6.52,36.943],[-7.454,37.098]]]}},{"type":"Feature","properties":{"name":"Ireland"},"geometry":{"type":"Polygon","coordinates":[[[-6.198,53.868],[-6.033,53.153],[-6.789,52.26],[-8.562,51.669],[-9.977,51.82],[-9.166,52.865],[-9.689,53.881],[-8.328,54.665],[-7.572,55.132],[-7.366,54.596],[-7.572,54.06],[-6.954,54.074],[-6.198,53.868]]]}},{"type":"Feature","properties":{"name":"Italy"},"geometry":{"type":"MultiPolygon","coordinates":[[[[10.443,46.894],[11.049,46.751],[11.165,46.942],[12.153,47.115],[12.376,46.768],[13.806,46.509],[13.698,46.017],[13.938,45.591],[13.142,45.737],[12.329,45.382],[12.384,44.885],[12.261,44.6],[12.589,44.091],[13.527,43.588],[14.03,42.761],[15.143,41.955],[15.926,41.961],[16.17,41.74],[15.889,41.541],[16.785,41.18],[17.519,40.877],[18.377,40.356],[18.48,40.169],[18.293,39.811],[17.738,40.278],[16.87,40.442],[16.449,39.795],[17.171,39.425],[17.053,38.903],[16.635,38.844],[16.101,37.986],[15.684,37.909],[15.688,38.215],[15.892,38.751],[16.109,38.965],[15.719,39.544],[15.414,40.048],[14.998,40.173],[14.703,40.605],[14.061,40.786],[13.628,41.188],[12.888,41.253],[12.107,41.705],[11.192,42.355],[10.512,42.931],[10.2,43.92],[9.702,44.036],[8.889,44.366],[8.429,44.231],[7.851,43.767],[7.435,43.694],[7.55,44.128],[7.008,44.255],[6.75,45.029],[7.097,45.333],[6.802,45.709],[6.844,45.991],[7.274,45.777],[7.756,45.824],[8.317,46.164],[8.49,46.005],[8.966,46.037],[9.183,46.44],[9.923,46.315],[10.363,46.484],[10.443,46.894]]],[[[14.761,38.144],[15.52,38.231],[15.16,37.444],[15.31,37.134],[15.1,36.62],[14.335,36.997],[13.827,37.105],[12.431,37.613],[12.571,38.126],[13.741,38.035],[14.761,38.144]]],[[[8.71,40.9],[9.21,41.21],[9.81,40.5],[9.67,39.177],[9.215,39.24],[8.807,38.907],[8.428,39.172],[8.388,40.378],[8.16,40.95],[8.71,40.9]]]]}},{"type":"Feature","properties":{"name":"Denmark"},"geometry":{"type":"MultiPolygon","coordinates":[[[[9.922,54.983],[9.282,54.831],[8.526,54.963],[8.12,55.518],[8.09,56.54],[8.257,56.81],[8.543,57.11],[9.424,57.172],[9.776,57.448],[10.58,57.73],[10.546,57.216],[10.25,56.89],[10.37,56.61],[10.912,56.459],[10.668,56.081],[10.37,56.19],[9.65,55.47],[9.922,54.983]]],[[[12.371,56.111],[12.69,55.61],[12.09,54.8],[11.044,55.365],[10.904,55.78],[12.371,56.111]]]]}},{"type":"Feature","properties":{"name":"United Kingdom"},"geometry":{"type":"MultiPolygon","coordinates":[[[[-6.198,53.868],[-6.954,54.074],[-7.572,54.06],[-7.366,54.596],[-7.572,55.132],[-6.734,55.173],[-5.662,54.555],[-6.198,53.868]]],[[[-3.094,53.405],[-3.092,53.404],[-2.945,53.985],[-3.615,54.601],[-3.63,54.615],[-4.844,54.791],[-5.083,55.062],[-4.719,55.508],[-5.048,55.784],[-5.586,55.311],[-5.645,56.275],[-6.15,56.785],[-5.787,57.819],[-5.01,58.63],[-4.211,58.551],[-3.005,58.635],[-4.074,57.553],[-3.055,57.69],[-1.959,57.685],[-2.22,56.87],[-3.119,55.974],[-2.085,55.91],[-2.006,55.805],[-1.115,54.625],[-0.43,54.464],[0.185,53.325],[0.47,52.93],[1.682,52.74],[1.56,52.1],[1.051,51.807],[1.45,51.289],[0.55,50.766],[-0.788,50.775],[-2.49,50.5],[-2.956,50.697],[-3.617,50.228],[-4.543,50.342],[-5.245,49.96],[-5.777,50.16],[-4.31,51.21],[-3.415,51.426],[-3.423,51.427],[-4.984,51.593],[-5.267,51.991],[-4.222,52.301],[-4.77,52.84],[-4.58,53.495],[-3.094,53.405]]]]}},{"type":"Feature","properties":{"name":"Iceland"},"geometry":{"type":"Polygon","coordinates":[[[-14.509,66.456],[-14.74,65.809],[-13.61,65.127],[-14.91,64.364],[-17.794,63.679],[-18.656,63.496],[-19.973,63.644],[-22.763,63.96],[-21.778,64.402],[-23.955,64.891],[-22.184,65.085],[-22.227,65.379],[-24.326,65.611],[-23.651,66.263],[-22.135,66.41],[-20.576,65.732],[-19.057,66.277],[-17.799,65.994],[-16.168,66.527],[-14.509,66.456]]]}},{"type":"Feature","properties":{"name":"Azerbaijan"},"geometry":{"type":"MultiPolygon","coordinates":[[[[46.405,41.861],[46.686,41.827],[47.373,41.22],[47.816,41.151],[47.987,41.406],[48.584,41.809],[49.11,41.282],[49.619,40.573],[50.085,40.526],[50.393,40.257],[49.569,40.176],[49.395,39.399],[49.223,39.049],[48.857,38.815],[48.883,38.32],[48.634,38.27],[48.011,38.794],[48.356,39.289],[48.06,39.582],[47.685,39.508],[46.506,38.771],[46.483,39.464],[46.035,39.628],[45.61,39.9],[45.892,40.218],[45.359,40.562],[45.56,40.812],[45.179,40.985],[44.972,41.248],[45.217,41.411],[45.963,41.124],[46.502,41.064],[46.638,41.182],[46.145,41.723],[46.405,41.861]]],[[[46.144,38.741],[45.458,38.874],[44.953,39.336],[44.794,39.713],[45.002,39.74],[45.298,39.472],[45.74,39.474],[45.735,39.32],[46.144,38.741]]]]}},{"type":"Feature","properties":{"name":"Georgia"},"geometry":{"type":"Polygon","coordinates":[[[39.955,43.435],[40.077,43.553],[40.922,43.382],[42.394,43.22],[43.756,42.741],[43.931,42.555],[44.538,42.712],[45.47,42.503],[45.776,42.092],[46.405,41.861],[46.145,41.723],[46.638,41.182],[46.502,41.064],[45.963,41.124],[45.217,41.411],[44.972,41.248],[43.583,41.092],[42.62,41.583],[41.554,41.536],[41.703,41.963],[41.453,42.645],[40.875,43.014],[40.321,43.129],[39.955,43.435]]]}},{"type":"Feature","properties":{"name":"Slovenia"},"geometry":{"type":"Polygon","coordinates":[[[13.806,46.509],[14.632,46.432],[15.137,46.659],[16.012,46.684],[16.202,46.852],[16.371,46.841],[16.565,46.504],[15.769,46.238],[15.672,45.834],[15.324,45.732],[15.328,45.452],[14.935,45.472],[14.595,45.635],[14.412,45.466],[13.715,45.5],[13.938,45.591],[13.698,46.017],[13.806,46.509]]]}},{"type":"Feature","properties":{"name":"Finland"},"geometry":{"type":"Polygon","coordinates":[[[28.592,69.065],[28.446,68.365],[29.977,67.698],[29.055,66.944],[30.218,65.806],[29.544,64.949],[30.445,64.204],[30.036,63.553],[31.516,62.868],[31.14,62.358],[30.211,61.78],[28.07,60.504],[28.07,60.504],[28.07,60.504],[26.255,60.424],[24.497,60.057],[22.87,59.846],[22.291,60.392],[21.322,60.72],[21.545,61.705],[21.059,62.607],[21.536,63.19],[22.443,63.818],[24.731,64.902],[25.398,65.111],[25.294,65.534],[23.903,66.007],[23.566,66.396],[23.539,67.936],[21.979,68.617],[20.646,69.106],[21.245,69.37],[22.356,68.842],[23.662,68.891],[24.736,68.65],[25.689,69.092],[26.18,69.825],[27.732,70.164],[29.016,69.766],[28.592,69.065]]]}},{"type":"Feature","properties":{"name":"Slovakia"},"geometry":{"type":"Polygon","coordinates":[[[22.558,49.086],[22.281,48.825],[22.086,48.422],[21.872,48.32],[20.801,48.624],[20.474,48.563],[20.239,48.328],[19.769,48.203],[19.661,48.267],[19.174,48.111],[18.777,48.082],[18.697,47.881],[17.857,47.758],[17.488,47.867],[16.98,48.123],[16.88,48.47],[16.96,48.597],[17.102,48.817],[17.545,48.8],[17.886,48.903],[17.914,48.996],[18.105,49.044],[18.17,49.272],[18.4,49.315],[18.555,49.495],[18.853,49.496],[18.91,49.436],[19.321,49.572],[19.825,49.217],[20.416,49.431],[20.888,49.329],[21.608,49.47],[22.558,49.086]]]}},{"type":"Feature","properties":{"name":"Czechia"},"geometry":{"type":"Polygon","coordinates":[[[15.017,51.107],[15.491,50.785],[16.239,50.698],[16.176,50.423],[16.719,50.216],[16.869,50.474],[17.555,50.362],[17.649,50.049],[18.393,49.989],[18.853,49.496],[18.555,49.495],[18.4,49.315],[18.17,49.272],[18.105,49.044],[17.914,48.996],[17.886,48.903],[17.545,48.8],[17.102,48.817],[16.96,48.597],[16.499,48.786],[16.03,48.734],[15.253,49.039],[14.901,48.964],[14.339,48.555],[13.596,48.877],[13.031,49.307],[12.521,49.547],[12.415,49.969],[12.24,50.266],[12.967,50.484],[13.338,50.733],[14.056,50.927],[14.307,51.117],[14.571,51.002],[15.017,51.107]]]}},{"type":"Feature","properties":{"name":"N. Cyprus"},"geometry":{"type":"Polygon","coordinates":[[[32.732,35.14],[32.802,35.146],[32.947,35.387],[33.667,35.373],[34.576,35.672],[33.901,35.246],[33.974,35.059],[33.866,35.094],[33.675,35.018],[33.526,35.039],[33.476,35.0],[33.456,35.101],[33.384,35.163],[33.191,35.173],[32.92,35.088],[32.732,35.14]]]}},{"type":"Feature","properties":{"name":"Cyprus"},"geometry":{"type":"Polygon","coordinates":[[[32.732,35.14],[32.92,35.088],[33.191,35.173],[33.384,35.163],[33.456,35.101],[33.476,35.0],[33.526,35.039],[33.675,35.018],[33.866,35.094],[33.974,35.059],[34.005,34.978],[32.98,34.572],[32.49,34.702],[32.257,35.103],[32.732,35.14]]]}},{"type":"Feature","properties":{"name":"Morocco"},"geometry":{"type":"Polygon","coordinates":[[[-2.17,35.168],[-1.793,34.528],[-1.733,33.92],[-1.388,32.864],[-1.125,32.652],[-1.308,32.263],[-2.617,32.094],[-3.069,31.724],[-3.647,31.637],[-3.69,30.897],[-4.86,30.501],[-5.242,30.0],[-6.061,29.732],[-7.059,29.579],[-8.674,28.841],[-8.666,27.656],[-8.818,27.656],[-8.795,27.121],[-9.413,27.088],[-9.735,26.861],[-10.189,26.861],[-10.551,26.991],[-11.393,26.883],[-11.718,26.104],[-12.031,26.031],[-12.501,24.77],[-13.891,23.691],[-14.221,22.31],[-14.631,21.861],[-14.751,21.501],[-17.003,21.421],[-17.02,21.422],[-16.973,21.886],[-16.589,22.158],[-16.262,22.679],[-16.326,23.018],[-15.983,23.723],[-15.426,24.359],[-15.089,24.52],[-14.825,25.104],[-14.801,25.636],[-14.44,26.254],[-13.774,26.619],[-13.14,27.64],[-13.122,27.654],[-12.619,28.038],[-11.689,28.149],[-10.901,28.832],[-10.4,29.099],[-9.565,29.934],[-9.815,31.178],[-9.435,32.038],[-9.301,32.565],[-8.657,33.24],[-7.654,33.697],[-6.913,34.11],[-6.244,35.146],[-5.93,35.76],[-5.194,35.755],[-4.591,35.331],[-3.64,35.4],[-2.604,35.179],[-2.17,35.168]]]}},{"type":"Feature","properties":{"name":"Libya"},"geometry":{"type":"Polygon","coordinates":[[[25,22],[25,20.003],[23.85,20],[23.838,19.58],[19.849,21.495],[15.861,23.41],[14.851,22.863],[14.144,22.491],[13.581,23.041],[12.0,23.472],[11.561,24.098],[10.771,24.563],[10.304,24.379],[9.948,24.937],[9.911,25.365],[9.319,26.094],[9.716,26.512],[9.629,27.141],[9.756,27.688],[9.684,28.144],[9.86,28.96],[9.806,29.425],[9.482,30.308],[9.97,30.539],[10.057,30.962],[9.95,31.376],[10.637,31.761],[10.945,32.082],[11.432,32.369],[11.489,33.137],[12.663,32.793],[13.083,32.879],[13.919,32.712],[15.246,32.265],[15.714,31.376],[16.612,31.182],[18.021,30.764],[19.086,30.266],[19.574,30.526],[20.053,30.986],[19.82,31.752],[20.134,32.238],[20.855,32.707],[21.543,32.843],[22.896,32.639],[23.237,32.191],[23.609,32.187],[23.927,32.017],[24.921,31.899],[25.165,31.569],[24.803,31.089],[24.958,30.662],[24.7,30.044],[25,29.239],[25,25.683],[25,22]]]}},{"type":"Feature","properties":{"name":"Bosnia and Herz."},"geometry":{"type":"Polygon","coordinates":[[[18.56,42.65],[17.675,43.029],[17.297,43.446],[16.916,43.668],[16.456,44.041],[16.24,44.351],[15.75,44.819],[15.959,45.234],[16.318,45.004],[16.535,45.212],[17.002,45.234],[17.862,45.068],[18.553,45.082],[19.005,44.86],[19.005,44.86],[19.368,44.863],[19.118,44.423],[19.6,44.038],[19.454,43.568],[19.219,43.524],[19.032,43.433],[18.706,43.2],[18.56,42.65]]]}},{"type":"Feature","properties":{"name":"North Macedonia"},"geometry":{"type":"Polygon","coordinates":[[[22.381,42.32],[22.881,41.999],[22.952,41.338],[22.762,41.305],[22.597,41.13],[22.055,41.15],[21.674,40.931],[21.02,40.843],[20.605,41.086],[20.463,41.515],[20.59,41.855],[20.59,41.855],[20.717,41.847],[20.762,42.052],[21.353,42.207],[21.577,42.245],[21.917,42.304],[22.381,42.32]]]}},{"type":"Feature","properties":{"name":"Serbia"},"geometry":{"type":"Polygon","coordinates":[[[18.83,45.909],[18.83,45.909],[19.596,46.172],[20.22,46.127],[20.762,45.735],[20.874,45.416],[21.484,45.181],[21.562,44.769],[22.145,44.478],[22.459,44.703],[22.706,44.578],[22.474,44.409],[22.657,44.235],[22.41,44.008],[22.5,43.643],[22.986,43.211],[22.605,42.899],[22.437,42.58],[22.545,42.461],[22.381,42.32],[21.917,42.304],[21.577,42.245],[21.543,42.32],[21.663,42.439],[21.775,42.683],[21.633,42.677],[21.439,42.863],[21.274,42.91],[21.143,43.069],[20.957,43.131],[20.814,43.272],[20.635,43.217],[20.497,42.885],[20.258,42.813],[20.34,42.899],[19.959,43.106],[19.63,43.214],[19.484,43.352],[19.219,43.524],[19.454,43.568],[19.6,44.038],[19.118,44.423],[19.368,44.863],[19.005,44.86],[19.005,44.86],[19.39,45.237],[19.073,45.522],[18.83,45.909]]]}},{"type":"Feature","properties":{"name":"Montenegro"},"geometry":{"type":"Polygon","coordinates":[[[20.071,42.589],[19.802,42.5],[19.738,42.688],[19.304,42.196],[19.372,41.878],[19.162,41.955],[18.882,42.282],[18.45,42.48],[18.56,42.65],[18.706,43.2],[19.032,43.433],[19.219,43.524],[19.484,43.352],[19.63,43.214],[19.959,43.106],[20.34,42.899],[20.258,42.813],[20.071,42.589]]]}},{"type":"Feature","properties":{"name":"Kosovo"},"geometry":{"type":"Polygon","coordinates":[[[20.59,41.855],[20.523,42.218],[20.284,42.32],[20.071,42.589],[20.258,42.813],[20.497,42.885],[20.635,43.217],[20.814,43.272],[20.957,43.131],[21.143,43.069],[21.274,42.91],[21.439,42.863],[21.633,42.677],[21.775,42.683],[21.663,42.439],[21.543,42.32],[21.577,42.245],[21.353,42.207],[20.762,42.052],[20.717,41.847],[20.59,41.855]]]}}]}